GPS BIIR-2  (PRN 13)    
1 24876U 97035A   22095.56971208  .00000007  00000+0  00000+0 0  9992
2 24876  55.4983 158.5167 0056440  52.1658 308.4180  2.00563555181197
GPS BIIR-4  (PRN 20)    
1 26360U 00025A   22095.17945135 -.00000024  00000+0  00000+0 0  9992
2 26360  54.0013  81.8919 0049082 183.4822 340.4627  2.00578712160509
GPS BIIR-6  (PRN 22)    
1 26605U 00071A   22095.33012494  .00000009  00000+0  00000+0 0  9998
2 26605  55.0807 155.5501 0134032 253.6295 152.3095  2.00563414156757
GPS BIIR-8  (PRN 16)    
1 27663U 03005A   22095.47618953 -.00000002  00000+0  00000+0 0  9994
2 27663  55.5635 275.9561 0126365  40.5787 320.2833  2.00568955140549
GPS BIIR-9  (PRN 21)    
1 27704U 03010A   22095.40686163 -.00000099  00000+0  00000+0 0  9993
2 27704  54.9982  26.2638 0246887 303.8405 226.8379  2.00577056139343
GPS BIIR-11 (PRN 19)    
1 28190U 04009A   22095.01594786 -.00000089  00000+0  00000+0 0  9997
2 28190  56.0452 336.9386 0089104 117.0125  69.0403  2.00561903132173
GPS BIIR-13 (PRN 02)    
1 28474U 04045A   22095.23496986 -.00000099  00000+0  00000+0 0  9990
2 28474  55.3265  26.3821 0207969 278.1005 334.5836  2.00568205127663
GPS BIIRM-1 (PRN 17)    
1 28874U 05038A   22095.48692826 -.00000085  00000+0  00000+0 0  9990
2 28874  56.1140 334.3511 0137213 274.5652 270.7485  2.00551235121073
GPS BIIRM-2 (PRN 31)    
1 29486U 06042A   22095.34164612  .00000007  00000+0  00000+0 0  9991
2 29486  54.7242 212.1799 0103506  20.9045 339.7093  2.00558723113631
GPS BIIRM-3 (PRN 12)    
1 29601U 06052A   22094.78696942 -.00000008  00000+0  00000+0 0  9996
2 29601  55.5686 274.9184 0084986  72.1938 288.7114  2.00575430112635
GPS BIIRM-4 (PRN 15)    
1 32260U 07047A   22095.09875530  .00000010  00000+0  00000+0 0  9995
2 32260  53.2924 143.5826 0137542  61.6196 299.8373  2.00552671106040
GPS BIIRM-5 (PRN 29)    
1 32384U 07062A   22095.29688795 -.00000086  00000+0  00000+0 0  9990
2 32384  56.2309 335.1102 0018280 132.4813 141.3497  2.00557852104742
GPS BIIRM-6 (PRN 07)    
1 32711U 08012A   22095.01543618  .00000007  00000+0  00000+0 0  9996
2 32711  54.4829 211.1454 0160070 229.8819 128.7021  2.00562917102982
GPS BIIRM-8 (PRN 05)    
1 35752U 09043A   22095.18601669 -.00000013  00000+0  00000+0 0  9996
2 35752  55.0171  88.4758 0057053  56.4892  84.8432  2.00561096 92590
GPS BIIF-1  (PRN 25)    
1 36585U 10022A   22095.31146588 -.00000001  00000+0  00000+0 0  9996
2 36585  54.8497 270.4675 0103665  56.3502 291.2169  2.00561647 86824
GPS BIIF-2  (PRN 01)    
1 37753U 11036A   22095.33867701 -.00000091  00000+0  00000+0 0  9998
2 37753  56.5745  31.5506 0115021  50.3132  41.9074  2.00565032 78512
GPS BIIF-3  (PRN 24)    
1 38833U 12053A   22095.19497253  .00000005  00000+0  00000+0 0  9997
2 38833  53.5362 206.3505 0122427  45.8580 315.1456  2.00560969 68679
GPS BIIF-4  (PRN 27)    
1 39166U 13023A   22095.05443417 -.00000082  00000+0  00000+0 0  9999
2 39166  55.7446 330.7692 0103153  36.9204 323.8303  2.00566487 65118
GPS BIIF-5  (PRN 30)    
1 39533U 14008A   22095.04908847  .00000006  00000+0  00000+0 0  9998
2 39533  53.6324 211.8547 0057520 205.9065 153.7997  2.00549708 58911
GPS BIIF-6  (PRN 06)    
1 39741U 14026A   22094.83241048 -.00000093  00000+0  00000+0 0  9995
2 39741  56.5374  31.0962 0028504 305.8218  53.9074  2.00561332 57768
GPS BIIF-7  (PRN 09)    
1 40105U 14045A   22094.92222116  .00000012  00000+0  00000+0 0  9997
2 40105  54.6737 149.7396 0019056 109.8706 250.4121  2.00572955 55308
GPS BIIF-8  (PRN 03)    
1 40294U 14068A   22095.29656251 -.00000008  00000+0  00000+0 0  9999
2 40294  55.7616  90.8235 0038187  51.9397 308.4097  2.00566501 54442
GPS BIIF-9  (PRN 26)    
1 40534U 15013A   22094.93098714 -.00000005  00000+0  00000+0 0  9998
2 40534  53.7522 267.7384 0068522  20.4336 339.8085  2.00557090 51055
GPS BIIF-10 (PRN 08)    
1 40730U 15033A   22095.09476371 -.00000081  00000+0  00000+0 0  9999
2 40730  55.2450 329.6314 0073912   6.4255 353.7128  2.00555933 49227
GPS BIIF-11 (PRN 10)    
1 41019U 15062A   22095.14241443 -.00000009  00000+0  00000+0 0  9998
2 41019  55.7510  90.6708 0077089 218.3929 141.0622  2.00563045 47063
GPS BIIF-12 (PRN 32)    
1 41328U 16007A   22095.23777159  .00000010  00000+0  00000+0 0  9990
2 41328  54.8933 150.3811 0060132 229.2596 130.2923  2.00573897 45075
GPS BIII-1  (PRN 04)    
1 43873U 18109A   22095.61134751  .00000008  00000+0  00000+0 0  9996
2 43873  55.0739 152.7692 0018174 195.7416 330.2630  2.00568099 24262
GPS BIII-2  (PRN 18)    
1 44506U 19056A   22095.37052050 -.00000092  00000+0  00000+0 0  9990
2 44506  55.6465  31.9551 0021666 181.9630  73.4148  2.00571489 19301
GPS BIII-3  (PRN 23)    
1 45854U 20041A   22095.33492615 -.00000010  00000+0  00000+0 0  9994
2 45854  55.4685  89.2246 0020170 178.4889 348.8281  2.00560043 13274
GPS BIII-4  (PRN 14)    
1 46826U 20078A   22095.66025253  .00000000  00000+0  00000+0 0  9998
2 46826  54.6167 273.0458 0016633 182.0394 193.4322  2.00565890 10743
GPS BIII-5  (PRN 11)    
1 48859U 21054A   22095.63122873 -.00000090  00000+0  00000+0 0  9994
2 48859  55.1506  33.9805 0002884 200.1419 336.4373  2.00550265  5992
